{
  "type": "FeatureCollection",
  "features": [
    {
      "type": "Feature",
      "properties": {
        "norad_id": 40010,
        "name": "KAZEOSAT 2",
        "group": "resource",
        "lat": -82.3749593292827,
        "lon": -63.12505597813604,
        "alt_km": 620.5353995783571,
        "timestamp": "2025-12-21T03:56:50.511646+00:00",
        "meta_object_name": "KAZEOSAT 2",
        "meta_object_id": "2014-033A",
        "meta_epoch": "2025-12-20T20:16:20.746848",
        "meta_mean_motion": 14.85178596,
        "meta_eccentricity": 0.0008338,
        "meta_inclination": 97.5497,
        "meta_ra_of_asc_node": 198.7403,
        "meta_arg_of_pericenter": 178.569,
        "meta_mean_anomaly": 181.5551,
        "meta_ephemeris_type": 0,
        "meta_classification_type": "U",
        "meta_norad_cat_id": 40010,
        "meta_element_set_no": 999,
        "meta_rev_at_epoch": 62248,
        "meta_bstar": 3.2901e-05,
        "meta_mean_motion_dot": 2.32e-06,
        "meta_mean_motion_ddot": 0,
        "tle_line1": "1 40010U 14033A   25354.84468457  .00000232  00000+0  32901-4 0  9996",
        "tle_line2": "2 40010  97.5497 198.7403 0008338 178.5690 181.5551 14.85178596622480"
      },
      "geometry": {
        "type": "Point",
        "coordinates": [
          -63.12505597813604,
          -82.3749593292827
        ]
      }
    },
    {
      "type": "Feature",
      "properties": {
        "norad_id": 40011,
        "name": "HODOYOSHI-4",
        "group": "resource",
        "lat": 65.51921125381419,
        "lon": 166.71932084951675,
        "alt_km": 603.7842029035482,
        "timestamp": "2025-12-21T03:56:50.511656+00:00",
        "meta_object_name": "HODOYOSHI-4",
        "meta_object_id": "2014-033B",
        "meta_epoch": "2025-12-20T19:34:32.332800",
        "meta_mean_motion": 14.87509137,
        "meta_eccentricity": 0.0023798,
        "meta_inclination": 97.5405,
        "meta_ra_of_asc_node": 183.3008,
        "meta_arg_of_pericenter": 173.4675,
        "meta_mean_anomaly": 186.6857,
        "meta_ephemeris_type": 0,
        "meta_classification_type": "U",
        "meta_norad_cat_id": 40011,
        "meta_element_set_no": 999,
        "meta_rev_at_epoch": 62228,
        "meta_bstar": 0.00020346,
        "meta_mean_motion_dot": 1.802e-05,
        "meta_mean_motion_ddot": 0,
        "tle_line1": "1 40011U 14033B   25354.81565200  .00001802  00000+0  20346-3 0  9991",
        "tle_line2": "2 40011  97.5405 183.3008 0023798 173.4675 186.6857 14.87509137622289"
      },
      "geometry": {
        "type": "Point",
        "coordinates": [
          166.71932084951675,
          65.51921125381419
        ]
      }
    },
    {
      "type": "Feature",
      "properties": {
        "norad_id": 40013,
        "name": "DEIMOS-2",
        "group": "resource",
        "lat": 30.203720559009074,
        "lon": -133.77504516712074,
        "alt_km": 586.7223172229669,
        "timestamp": "2025-12-21T03:56:50.511665+00:00",
        "meta_object_name": "DEIMOS-2",
        "meta_object_id": "2014-033D",
        "meta_epoch": "2025-12-20T19:46:07.465728",
        "meta_mean_motion": 14.93008969,
        "meta_eccentricity": 0.000151,
        "meta_inclination": 97.6069,
        "meta_ra_of_asc_node": 230.3572,
        "meta_arg_of_pericenter": 104.1616,
        "meta_mean_anomaly": 255.9772,
        "meta_ephemeris_type": 0,
        "meta_classification_type": "U",
        "meta_norad_cat_id": 40013,
        "meta_element_set_no": 999,
        "meta_rev_at_epoch": 61110,
        "meta_bstar": 0.00023419,
        "meta_mean_motion_dot": 2.38e-05,
        "meta_mean_motion_ddot": 0,
        "tle_line1": "1 40013U 14033D   25354.82369752  .00002380  00000+0  23419-3 0  9994",
        "tle_line2": "2 40013  97.6069 230.3572 0001510 104.1616 255.9772 14.93008969611100"
      },
      "geometry": {
        "type": "Point",
        "coordinates": [
          -133.77504516712074,
          30.203720559009074
        ]
      }
    },
    {
      "type": "Feature",
      "properties": {
        "norad_id": 40015,
        "name": "HODOYOSHI-3",
        "group": "resource",
        "lat": -82.20131426505324,
        "lon": -121.537405762124,
        "alt_km": 607.653345479167,
        "timestamp": "2025-12-21T03:56:50.511675+00:00",
        "meta_object_name": "HODOYOSHI-3",
        "meta_object_id": "2014-033F",
        "meta_epoch": "2025-12-20T10:33:15.533568",
        "meta_mean_motion": 14.84830501,
        "meta_eccentricity": 0.0032237,
        "meta_inclination": 97.6204,
        "meta_ra_of_asc_node": 159.9401,
        "meta_arg_of_pericenter": 221.7025,
        "meta_mean_anomaly": 138.1732,
        "meta_ephemeris_type": 0,
        "meta_classification_type": "U",
        "meta_norad_cat_id": 40015,
        "meta_element_set_no": 999,
        "meta_rev_at_epoch": 62109,
        "meta_bstar": 0.00014195012,
        "meta_mean_motion_dot": 1.164e-05,
        "meta_mean_motion_ddot": 0,
        "tle_line1": "1 40015U 14033F   25354.43976312  .00001164  00000+0  14195-3 0  9999",
        "tle_line2": "2 40015  97.6204 159.9401 0032237 221.7025 138.1732 14.84830501621092"
      },
      "geometry": {
        "type": "Point",
        "coordinates": [
          -121.537405762124,
          -82.20131426505324
        ]
      }
    },
    {
      "type": "Feature",
      "properties": {
        "norad_id": 40053,
        "name": "SPOT 7",
        "group": "resource",
        "lat": -14.908661327966902,
        "lon": 59.216365104722875,
        "alt_km": 695.66009050299,
        "timestamp": "2025-12-21T03:56:50.511684+00:00",
        "meta_object_name": "SPOT 7",
        "meta_object_id": "2014-034A",
        "meta_epoch": "2025-12-20T19:47:46.538016",
        "meta_mean_motion": 14.60742799,
        "meta_eccentricity": 0.0001566,
        "meta_inclination": 98.0901,
        "meta_ra_of_asc_node": 56.7143,
        "meta_arg_of_pericenter": 85.2479,
        "meta_mean_anomaly": 274.89,
        "meta_ephemeris_type": 0,
        "meta_classification_type": "U",
        "meta_norad_cat_id": 40053,
        "meta_element_set_no": 999,
        "meta_rev_at_epoch": 61109,
        "meta_bstar": 6.4507e-05,
        "meta_mean_motion_dot": 2.69e-06,
        "meta_mean_motion_ddot": 0,
        "tle_line1": "1 40053U 14034A   25354.82484419  .00000269  00000+0  64507-4 0  9995",
        "tle_line2": "2 40053  98.0901  56.7143 0001566  85.2479 274.8900 14.60742799611096"
      },
      "geometry": {
        "type": "Point",
        "coordinates": [
          59.216365104722875,
          -14.908661327966902
        ]
      }
    },
    {
      "type": "Feature",
      "properties": {
        "norad_id": 40072,
        "name": "SKYSAT-B",
        "group": "resource",
        "lat": 5.734683088035199,
        "lon": -61.530600268228945,
        "alt_km": 610.7981134653337,
        "timestamp": "2025-12-21T03:56:50.511694+00:00",
        "meta_object_name": "SKYSAT-B",
        "meta_object_id": "2014-037D",
        "meta_epoch": "2025-12-20T19:50:54.393216",
        "meta_mean_motion": 14.87352902,
        "meta_eccentricity": 0.0006644,
        "meta_inclination": 98.3623,
        "meta_ra_of_asc_node": 298.9605,
        "meta_arg_of_pericenter": 127.4898,
        "meta_mean_anomaly": 232.6921,
        "meta_ephemeris_type": 0,
        "meta_classification_type": "U",
        "meta_norad_cat_id": 40072,
        "meta_element_set_no": 999,
        "meta_rev_at_epoch": 61944,
        "meta_bstar": 0.00012991,
        "meta_mean_motion_dot": 1.113e-05,
        "meta_mean_motion_ddot": 0,
        "tle_line1": "1 40072U 14037D   25354.82701844  .00001113  00000+0  12991-3 0  9991",
        "tle_line2": "2 40072  98.3623 298.9605 0006644 127.4898 232.6921 14.87352902619444"
      },
      "geometry": {
        "type": "Point",
        "coordinates": [
          -61.530600268228945,
          5.734683088035199
        ]
      }
    },
    {
      "type": "Feature",
      "properties": {
        "norad_id": 40115,
        "name": "WORLDVIEW-3 (WV-3)",
        "group": "resource",
        "lat": -11.126675027137185,
        "lon": -114.2194425714932,
        "alt_km": 618.2881850490285,
        "timestamp": "2025-12-21T03:56:50.511703+00:00",
        "meta_object_name": "WORLDVIEW-3 (WV-3)",
        "meta_object_id": "2014-048A",
        "meta_epoch": "2025-12-20T19:00:06.414624",
        "meta_mean_motion": 14.84664274,
        "meta_eccentricity": 0.0001816,
        "meta_inclination": 97.877,
        "meta_ra_of_asc_node": 66.9726,
        "meta_arg_of_pericenter": 136.0463,
        "meta_mean_anomaly": 224.0896,
        "meta_ephemeris_type": 0,
        "meta_classification_type": "U",
        "meta_norad_cat_id": 40115,
        "meta_element_set_no": 999,
        "meta_rev_at_epoch": 61543,
        "meta_bstar": 9.0899e-05,
        "meta_mean_motion_dot": 7.15e-06,
        "meta_mean_motion_ddot": 0,
        "tle_line1": "1 40115U 14048A   25354.79174091  .00000715  00000+0  90899-4 0  9996",
        "tle_line2": "2 40115  97.8770  66.9726 0001816 136.0463 224.0896 14.84664274615432"
      },
      "geometry": {
        "type": "Point",
        "coordinates": [
          -114.2194425714932,
          -11.126675027137185
        ]
      }
    }
  ]
}